STARLINK-2257
1 17787C 21018A   21326.18232664  .00003724  00000-0  24961-3 0  3266
2 17787  53.0556  92.9322 0001309  86.0538 212.9904 15.06380211    14
